CTC2_L_00174016-03
1 77717U 25015ZN  26037.47792824  .00000000  00000+0  00000-0 0  9992
2 77717  95.0000 180.0000 0000000   0.0000   0.0000 14.89338779    14
CTC2_L_00174016-04
1 77718U 22916A   26037.47792824  .00000000  00000+0  00000-0 0  9990
2 77718  95.0000 180.0000 0000000   0.0000  90.0000 14.89338779    14
CTC2_L_00174017-01
1 77719U 26776DJ  26037.47792824  .00000000  00000+0  00000-0 0  9999
2 77719  95.0000 192.0000 0000000   0.0000 192.0000 14.89338779    11
CTC2_L_00174017-02
1 77720U 22244LO  26037.47792824  .00000000  00000+0  00000-0 0  9997
2 77720  95.0000 192.0000 0000000   0.0000 282.0000 14.89338779    13
CTC2_L_00174017-03
1 77721U 22960UG  26037.47792824  .00000000  00000+0  00000-0 0  9993
2 77721  95.0000 192.0000 0000000   0.0000  12.0000 14.89338779    15
CTC2_L_00174017-04
1 77722U 26555WD  26037.47792824  .00000000  00000+0  00000-0 0  9998
2 77722  95.0000 192.0000 0000000   0.0000 102.0000 14.89338779    16
CTC2_L_00174018-01
1 77723U 26270IR  26037.47792824  .00000000  00000+0  00000-0 0  9993
2 77723  95.0000 204.0000 0000000   0.0000 204.0000 14.89338779    14
CTC2_L_00174018-02
1 77724U 26427VE  26037.47792824  .00000000  00000+0  00000-0 0  9998
2 77724  95.0000 204.0000 0000000   0.0000 294.0000 14.89338779    14
CTC2_L_00174018-03
1 77725U 24993EM  26037.47792824  .00000000  00000+0  00000-0 0  9995
2 77725  95.0000 204.0000 0000000   0.0000  24.0000 14.89338779    16
CTC2_L_00174018-04
1 77726U 23617KV  26037.47792824  .00000000  00000+0  00000-0 0  9998
2 77726  95.0000 204.0000 0000000   0.0000 114.0000 14.89338779    17
CTC2_L_00174019-01
1 77727U 25882GN  26037.47792824  .00000000  00000+0  00000-0 0  9995
2 77727  95.0000 216.0000 0000000   0.0000 216.0000 14.89338779    14
CTC2_L_00174019-02
1 77728U 25437OM  26037.47792824  .00000000  00000+0  00000-0 0  9992
2 77728  95.0000 216.0000 0000000   0.0000 306.0000 14.89338779    15
CTC2_L_00174019-03
1 77729U 25708MY  26037.47792824  .00000000  00000+0  00000-0 0  9994
2 77729  95.0000 216.0000 0000000   0.0000  36.0000 14.89338779    16
CTC2_L_00174019-04
1 77730U 26298ZT  26037.47792824  .00000000  00000+0  00000-0 0  9991
2 77730  95.0000 216.0000 0000000   0.0000 126.0000 14.89338779    18
CTC2_L_00174020-01
1 77731U 22591LR  26037.47792824  .00000000  00000+0  00000-0 0  9994
2 77731  95.0000 228.0000 0000000   0.0000 228.0000 14.89338779    15
CTC2_L_00174020-02
1 77732U 22947YQ  26037.47792824  .00000000  00000+0  00000-0 0  9990
2 77732  95.0000 228.0000 0000000   0.0000 318.0000 14.89338779    16
CTC2_L_00174020-03
1 77733U 23531YY  26037.47792824  .00000000  00000+0  00000-0 0  9991
2 77733  95.0000 228.0000 0000000   0.0000  48.0000 14.89338779    17
CTC2_L_00174020-04
1 77734U 25142MO  26037.47792824  .00000000  00000+0  00000-0 0  9992
2 77734  95.0000 228.0000 0000000   0.0000 138.0000 14.89338779    18
CTC2_L_00174021-01
1 77735U 25082ZE  26037.47792824  .00000000  00000+0  00000-0 0  9996
2 77735  95.0000 240.0000 0000000   0.0000 240.0000 14.89338779    17
CTC2_L_00174021-02
1 77736U 25078VX  26037.47792824  .00000000  00000+0  00000-0 0  9992
2 77736  95.0000 240.0000 0000000   0.0000 330.0000 14.89338779    18
CTC2_L_00174021-03
1 77737U 25054LR  26037.47792824  .00000000  00000+0  00000-0 0  9997
2 77737  95.0000 240.0000 0000000   0.0000  60.0000 14.89338779    19
CTC2_L_00174021-04
1 77738U 22938WM  26037.47792824  .00000000  00000+0  00000-0 0  9996
2 77738  95.0000 240.0000 0000000   0.0000 150.0000 14.89338779    10
CTC2_L_00174022-01
1 77739U 23272PX  26037.47792824  .00000000  00000+0  00000-0 0  9999
2 77739  95.0000 252.0000 0000000   0.0000 252.0000 14.89338779    17
CTC2_L_00174022-02
1 77740U 23353LL  26037.47792824  .00000000  00000+0  00000-0 0  9991
2 77740  95.0000 252.0000 0000000   0.0000 342.0000 14.89338779    19
CTC2_L_00174022-03
1 77741U 22021ZI  26037.47792824  .00000000  00000+0  00000-0 0  9993
2 77741  95.0000 252.0000 0000000   0.0000  72.0000 14.89338779    10
CTC2_L_00174022-04
1 77742U 23907YU  26037.47792824  .00000000  00000+0  00000-0 0  9998
2 77742  95.0000 252.0000 0000000   0.0000 162.0000 14.89338779    11
CTC2_L_00174023-01
1 77743U 22915XS  26037.47792824  .00000000  00000+0  00000-0 0  9997
2 77743  95.0000 264.0000 0000000   0.0000 264.0000 14.89338779    18
CTC2_L_00174023-02
1 77744U 23087AD  26037.47792824  .00000000  00000+0  00000-0 0  9999
2 77744  95.0000 264.0000 0000000   0.0000 354.0000 14.89338779    19
CTC2_L_00174023-03
1 77745U 22849MJ  26037.47792824  .00000000  00000+0  00000-0 0  9995
2 77745  95.0000 264.0000 0000000   0.0000  84.0000 14.89338779    10
CTC2_L_00174023-04
1 77746U 24027U   26037.47792824  .00000000  00000+0  00000-0 0  9996
2 77746  95.0000 264.0000 0000000   0.0000 174.0000 14.89338779    11
CTC2_L_00174024-01
1 77747U 23375TI  26037.47792824  .00000000  00000+0  00000-0 0  9992
2 77747  95.0000 276.0000 0000000   0.0000 276.0000 14.89338779    18
CTC2_L_00174024-02
1 77748U 25030KA  26037.47792824  .00000000  00000+0  00000-0 0  9993
2 77748  95.0000 276.0000 0000000   0.0000   6.0000 14.89338779    10
CTC2_L_00174024-03
1 77749U 22324SP  26037.47792824  .00000000  00000+0  00000-0 0  9997
2 77749  95.0000 276.0000 0000000   0.0000  96.0000 14.89338779    10
CTC2_L_00174024-04
1 77750U 23194SA  26037.47792824  .00000000  00000+0  00000-0 0  9995
2 77750  95.0000 276.0000 0000000   0.0000 186.0000 14.89338779    12
CTC2_L_00174025-01
1 77751U 23352TN  26037.47792824  .00000000  00000+0  00000-0 0  9992
2 77751  95.0000 288.0000 0000000   0.0000 288.0000 14.89338779    19
CTC2_L_00174025-02
1 77752U 26702OF  26037.47792824  .00000000  00000+0  00000-0 0  9995
2 77752  95.0000 288.0000 0000000   0.0000  18.0000 14.89338779    11
CTC2_L_00174025-03
1 77753U 22914YT  26037.47792824  .00000000  00000+0  00000-0 0  9997
2 77753  95.0000 288.0000 0000000   0.0000 108.0000 14.89338779    12
CTC2_L_00174025-04
1 77754U 25597JG  26037.47792824  .00000000  00000+0  00000-0 0  9998
2 77754  95.0000 288.0000 0000000   0.0000 198.0000 14.89338779    12
CTC2_L_00174026-01
1 77755U 24578ZV  26037.47792824  .00000000  00000+0  00000-0 0  9997
2 77755  95.0000 300.0000 0000000   0.0000 300.0000 14.89338779    13
CTC2_L_00174026-02
1 77756U 26868MZ  26037.47792824  .00000000  00000+0  00000-0 0  9992
2 77756  95.0000 300.0000 0000000   0.0000  30.0000 14.89338779    14
CTC2_L_00174026-03
1 77757U 24957NT  26037.47792824  .00000000  00000+0  00000-0 0  9990
2 77757  95.0000 300.0000 0000000   0.0000 120.0000 14.89338779    15
CTC2_L_00174026-04
1 77758U 24163SL  26037.47792824  .00000000  00000+0  00000-0 0  9990
2 77758  95.0000 300.0000 0000000   0.0000 210.0000 14.89338779    16
CTC2_L_00174027-01
1 77759U 25517LJ  26037.47792824  .00000000  00000+0  00000-0 0  9995
2 77759  95.0000 312.0000 0000000   0.0000 312.0000 14.89338779    13
CTC2_L_00174027-02
1 77760U 26876WT  26037.47792824  .00000000  00000+0  00000-0 0  9996
2 77760  95.0000 312.0000 0000000   0.0000  42.0000 14.89338779    15
CTC2_L_00174027-03
1 77761U 23809QY  26037.47792824  .00000000  00000+0  00000-0 0  9990
2 77761  95.0000 312.0000 0000000   0.0000 132.0000 14.89338779    16
CTC2_L_00174027-04
1 77762U 23988ZJ  26037.47792824  .00000000  00000+0  00000-0 0  9999
2 77762  95.0000 312.0000 0000000   0.0000 222.0000 14.89338779    17
CTC2_L_00174028-01
1 77763U 24698KP  26037.47792824  .00000000  00000+0  00000-0 0  9999
2 77763  95.0000 324.0000 0000000   0.0000 324.0000 14.89338779    14
CTC2_L_00174028-02
1 77764U 26856QN  26037.47792824  .00000000  00000+0  00000-0 0  9998
2 77764  95.0000 324.0000 0000000   0.0000  54.0000 14.89338779    15
CTC2_L_00174028-03
1 77765U 26539SQ  26037.47792824  .00000000  00000+0  00000-0 0  9997
2 77765  95.0000 324.0000 0000000   0.0000 144.0000 14.89338779    16
CTC2_L_00174028-04
1 77766U 23470VE  26037.47792824  .00000000  00000+0  00000-0 0  9999
2 77766  95.0000 324.0000 0000000   0.0000 234.0000 14.89338779    17
CTC2_L_00174029-01
1 77767U 23945VU  26037.47792824  .00000000  00000+0  00000-0 0  9997
2 77767  95.0000 336.0000 0000000   0.0000 336.0000 14.89338779    14
CTC2_L_00174029-02
1 77768U 23607IE  26037.47792824  .00000000  00000+0  00000-0 0  9993
2 77768  95.0000 336.0000 0000000   0.0000  66.0000 14.89338779    15
CTC2_L_00174029-03
1 77769U 22498FM  26037.47792824  .00000000  00000+0  00000-0 0  9991
2 77769  95.0000 336.0000 0000000   0.0000 156.0000 14.89338779    16
CTC2_L_00174029-04
1 77770U 24051NH  26037.47792824  .00000000  00000+0  00000-0 0  9990
2 77770  95.0000 336.0000 0000000   0.0000 246.0000 14.89338779    18
CTC2_L_00174030-01
1 77771U 25704AP  26037.47792824  .00000000  00000+0  00000-0 0  9997
2 77771  95.0000 348.0000 0000000   0.0000 348.0000 14.89338779    15
CTC2_L_00174030-02
1 77772U 22278XT  26037.47792824  .00000000  00000+0  00000-0 0  9991
2 77772  95.0000 348.0000 0000000   0.0000  78.0000 14.89338779    16
CTC2_L_00174030-03
1 77773U 22565BU  26037.47792824  .00000000  00000+0  00000-0 0  9991
2 77773  95.0000 348.0000 0000000   0.0000 168.0000 14.89338779    17
CTC2_L_00174030-04
1 77774U 25806CO  26037.47792824  .00000000  00000+0  00000-0 0  9993
2 77774  95.0000 348.0000 0000000   0.0000 258.0000 14.89338779    18
